0 COSMOS 1441
1 13818U 83010A   13281.96238925  .00029866  00000-0  55801-3 0  6868
2 13818 081.0712 051.1446 0001255 185.3082 314.2500 15.48599861680659
0 COSMOS 1441
1 13818U 83010A   13283.48809284  .00050262  00000-0  94062-3 0  6887
2 13818 081.0705 049.2611 0001399 179.8805 180.2964 15.48680513680899
0 COSMOS 1441
1 13818U 83010A   13283.49601612  .00026223  00000-0  48868-3 0  6875
2 13818 081.0709 049.2509 0001314 182.3123 222.0067 15.48682621680899
0 COSMOS 1441
1 13818U 83010A   13285.43778501  .00022911  00000-0  42586-3 0  6896
2 13818 081.0710 046.8527 0001327 175.8780 247.7741 15.48762862681197
0 COSMOS 1441
1 13818U 83010A   13286.46785767  .00022648  00000-0  42035-3 0  6900
2 13818 081.0713 045.5805 0001365 171.9820 231.3681 15.48805972681359
0 COSMOS 1441
1 13818U 83010A   13287.83809539  .00029315  00000-0  54257-3 0  6914
2 13818 081.0716 043.8879 0001326 167.6066 311.1356 15.48871725681563
0 COSMOS 1441
1 13818U 83010A   13289.37291632  .00028994  00000-0  53503-3 0  6920
2 13818 081.0719 041.9920 0001329 164.5151 227.1811 15.48957472681809
0 COSMOS 1441
1 13818U 83010A   13290.40816751  .00031040  00000-0  57167-3 0  6938
2 13818 081.0724 040.7135 0001361 161.3681 239.6194 15.49008068681967
0 COSMOS 1441
1 13818U 83010A   13291.84669059  .00024815  00000-0  45604-3 0  6940
2 13818 081.0728 038.9369 0001332 155.6867 342.2962 15.49084487682187
0 COSMOS 1441
1 13818U 83010A   13292.88015494  .00024457  00000-0  44869-3 0  6958
2 13818 081.0725 037.6598 0001334 151.9909 345.7901 15.49134635682342
0 COSMOS 1441
1 13818U 83010A   13294.41401113  .00029417  00000-0  53822-3 0  6967
2 13818 081.0720 035.7646 0001463 147.3493 259.4025 15.49200542682585
0 COSMOS 1441
1 13818U 83010A   13295.78320942  .00028434  00000-0  51909-3 0  6971
2 13818 081.0720 034.0728 0001454 144.5267 333.7901 15.49265697682790
